[{"OBJECT_NAME":"STARLINK-1540","OBJECT_ID":"2020-055AA","EPOCH":"2026-03-09T16:00:03.000096","MEAN_MOTION":15.30181677,"ECCENTRICITY":0.0001277,"INCLINATION":53.1586,"RA_OF_ASC_NODE":113.9518,"ARG_OF_PERICENTER":96.4813,"MEAN_ANOMALY":168.6408,"EPHEMERIS_TYPE":0,"CLASSIFICATION_TYPE":"U","NORAD_CAT_ID":46051,"ELEMENT_SET_NO":999,"REV_AT_EPOCH":564,"BSTAR":0.00038992,"MEAN_MOTION_DOT":0.000112,"MEAN_MOTION_DDOT":0},{"OBJECT_NAME":"OBJECT D","OBJECT_ID":"2024-085D","EPOCH":"2026-03-09T22:53:13.410816","MEAN_MOTION":15.33413141,"ECCENTRICITY":0.00152451,"INCLINATION":97.3312,"RA_OF_ASC_NODE":145.3953,"ARG_OF_PERICENTER":54.9672,"MEAN_ANOMALY":305.2998,"EPHEMERIS_TYPE":0,"CLASSIFICATION_TYPE":"U","NORAD_CAT_ID":59680,"ELEMENT_SET_NO":999,"REV_AT_EPOCH":10244,"BSTAR":0.00049264705,"MEAN_MOTION_DOT":0.00015903,"MEAN_MOTION_DDOT":0}]
